{"type": "FeatureCollection", "features": [ {"type": "Feature", "properties": {"norad_id": 34079, "name": "IRIDIUM 33 DEB", "group": "iridium-33-debris", "lat": 63.14231444142747, "lon": 9.389609815744265, "alt_km": 611.8681753021283, "timestamp": "2025-12-26T22:28:06.169943+00:00", "meta": {"OBJECT_NAME": "IRIDIUM 33 DEB", "OBJECT_ID": "1997-051CN", "EPOCH": "2025-12-26T18:07:27.996096", "MEAN_MOTION": 14.83912945, "ECCENTRICITY": 0.000379, "INCLINATION": 86.3778, "RA_OF_ASC_NODE": 2.2859, "ARG_OF_PERICENTER": 313.1989, "MEAN_ANOMALY": 223.9138, "EPHEMERIS_TYPE": 0, "CLASSIFICATION_TYPE": "U", "NORAD_CAT_ID": 34079, "ELEMENT_SET_NO": 999, "REV_AT_EPOCH": 89185, "BSTAR": 0.0020562, "MEAN_MOTION_DOT": 0.00017127, "MEAN_MOTION_DDOT": 0}, "tle": {"line1": "1 34079U 97051CN  25360.75518514  .00017127  00000+0  20562-2 0  9991", "line2": "2 34079  86.3778   2.2859 0003790 313.1989 223.9138 14.83912945891858"}}, "geometry": {"type": "Point", "coordinates": [9.389609815744265, 63.14231444142747]}}, {"type": "Feature", "properties": {"norad_id": 34088, "name": "IRIDIUM 33 DEB", "group": "iridium-33-debris", "lat": -22.45502618510364, "lon": -154.3059863181855, "alt_km": 595.3845996103519, "timestamp": "2025-12-26T22:28:06.169954+00:00", "meta": {"OBJECT_NAME": "IRIDIUM 33 DEB", "OBJECT_ID": "1997-051CX", "EPOCH": "2025-12-26T14:04:54.130368", "MEAN_MOTION": 14.92012615, "ECCENTRICITY": 0.000718, "INCLINATION": 86.3846, "RA_OF_ASC_NODE": 24.3573, "ARG_OF_PERICENTER": 134.1016, "MEAN_ANOMALY": 352.4907, "EPHEMERIS_TYPE": 0, "CLASSIFICATION_TYPE": "U", "NORAD_CAT_ID": 34088, "ELEMENT_SET_NO": 999, "REV_AT_EPOCH": 88948, "BSTAR": 0.0024249, "MEAN_MOTION_DOT": 0.00024675, "MEAN_MOTION_DDOT": 0}, "tle": {"line1": "1 34088U 97051CX  25360.58673762  .00024675  00000+0  24249-2 0  9991", "line2": "2 34088  86.3846  24.3573 0007180 134.1016 352.4907 14.92012615889484"}}, "geometry": {"type": "Point", "coordinates": [-154.3059863181855, -22.45502618510364]}}, {"type": "Feature", "properties": {"norad_id": 34091, "name": "IRIDIUM 33 DEB", "group": "iridium-33-debris", "lat": -86.33386610577068, "lon": -26.83938031313843, "alt_km": 606.4444022232328, "timestamp": "2025-12-26T22:28:06.169964+00:00", "meta": {"OBJECT_NAME": "IRIDIUM 33 DEB", "OBJECT_ID": "1997-051DA", "EPOCH": "2025-12-26T03:26:13.490880", "MEAN_MOTION": 14.82802245, "ECCENTRICITY": 0.00343844, "INCLINATION": 86.3408, "RA_OF_ASC_NODE": 60.6907, "ARG_OF_PERICENTER": 245.3053, "MEAN_ANOMALY": 114.4589, "EPHEMERIS_TYPE": 0, "CLASSIFICATION_TYPE": "U", "NORAD_CAT_ID": 34091, "ELEMENT_SET_NO": 999, "REV_AT_EPOCH": 88065, "BSTAR": 0.0044294719, "MEAN_MOTION_DOT": 0.00036356, "MEAN_MOTION_DDOT": 0}, "tle": {"line1": "1 34091U 97051DA  25360.14321170  .00036356  00000+0  44295-2 0  9992", "line2": "2 34091  86.3408  60.6907 0034384 245.3053 114.4589 14.82802245880655"}}, "geometry": {"type": "Point", "coordinates": [-26.83938031313843, -86.33386610577068]}}, {"type": "Feature", "properties": {"norad_id": 34097, "name": "IRIDIUM 33 DEB", "group": "iridium-33-debris", "lat": -73.15049152892892, "lon": -172.18534035079315, "alt_km": 755.2697594109941, "timestamp": "2025-12-26T22:28:06.169975+00:00", "meta": {"OBJECT_NAME": "IRIDIUM 33 DEB", "OBJECT_ID": "1997-051DG", "EPOCH": "2025-12-26T09:34:04.478016", "MEAN_MOTION": 14.34889238, "ECCENTRICITY": 0.0081225, "INCLINATION": 86.2008, "RA_OF_ASC_NODE": 355.3778, "ARG_OF_PERICENTER": 317.4049, "MEAN_ANOMALY": 42.0864, "EPHEMERIS_TYPE": 0, "CLASSIFICATION_TYPE": "U", "NORAD_CAT_ID": 34097, "ELEMENT_SET_NO": 999, "REV_AT_EPOCH": 87315, "BSTAR": 0.0016349, "MEAN_MOTION_DOT": 4.839e-05, "MEAN_MOTION_DDOT": 0}, "tle": {"line1": "1 34097U 97051DG  25360.39866294  .00004839  00000+0  16349-2 0  9996", "line2": "2 34097  86.2008 355.3778 0081225 317.4049  42.0864 14.34889238873151"}}, "geometry": {"type": "Point", "coordinates": [-172.18534035079315, -73.15049152892892]}}, {"type": "Feature", "properties": {"norad_id": 34145, "name": "IRIDIUM 33 DEB", "group": "iridium-33-debris", "lat": -7.186555964637956, "lon": 146.68235700945303, "alt_km": 783.9587264580196, "timestamp": "2025-12-26T22:28:06.169986+00:00", "meta": {"OBJECT_NAME": "IRIDIUM 33 DEB", "OBJECT_ID": "1997-051DY", "EPOCH": "2025-12-26T14:56:53.035584", "MEAN_MOTION": 14.42393887, "ECCENTRICITY": 0.0055399, "INCLINATION": 86.2128, "RA_OF_ASC_NODE": 326.3433, "ARG_OF_PERICENTER": 49.7595, "MEAN_ANOMALY": 310.8432, "EPHEMERIS_TYPE": 0, "CLASSIFICATION_TYPE": "U", "NORAD_CAT_ID": 34145, "ELEMENT_SET_NO": 999, "REV_AT_EPOCH": 87838, "BSTAR": 0.0014608, "MEAN_MOTION_DOT": 4.939e-05, "MEAN_MOTION_DDOT": 0}, "tle": {"line1": "1 34145U 97051DY  25360.62283606  .00004939  00000+0  14608-2 0  9993", "line2": "2 34145  86.2128 326.3433 0055399  49.7595 310.8432 14.42393887878384"}}, "geometry": {"type": "Point", "coordinates": [146.68235700945303, -7.186555964637956]}}, {"type": "Feature", "properties": {"norad_id": 34146, "name": "IRIDIUM 33 DEB", "group": "iridium-33-debris", "lat": 10.872313261152906, "lon": 162.81328234947736, "alt_km": 710.8259688405133, "timestamp": "2025-12-26T22:28:06.169997+00:00", "meta": {"OBJECT_NAME": "IRIDIUM 33 DEB", "OBJECT_ID": "1997-051DZ", "EPOCH": "2025-12-26T05:10:53.931072", "MEAN_MOTION": 14.49135058, "ECCENTRICITY": 0.0027049, "INCLINATION": 86.2845, "RA_OF_ASC_NODE": 343.8464, "ARG_OF_PERICENTER": 175.3009, "MEAN_ANOMALY": 198.4852, "EPHEMERIS_TYPE": 0, "CLASSIFICATION_TYPE": "U", "NORAD_CAT_ID": 34146, "ELEMENT_SET_NO": 999, "REV_AT_EPOCH": 88302, "BSTAR": 0.00092782, "MEAN_MOTION_DOT": 3.563e-05, "MEAN_MOTION_DDOT": 0}, "tle": {"line1": "1 34146U 97051DZ  25360.21590198  .00003563  00000+0  92782-3 0  9998", "line2": "2 34146  86.2845 343.8464 0027049 175.3009 198.4852 14.49135058883020"}}, "geometry": {"type": "Point", "coordinates": [162.81328234947736, 10.872313261152906]}}, {"type": "Feature", "properties": {"norad_id": 34159, "name": "IRIDIUM 33 DEB", "group": "iridium-33-debris", "lat": 63.42803958631508, "lon": 49.520925112302194, "alt_km": 775.9443015542975, "timestamp": "2025-12-26T22:28:06.170008+00:00", "meta": {"OBJECT_NAME": "IRIDIUM 33 DEB", "OBJECT_ID": "1997-051EN", "EPOCH": "2025-12-26T02:08:20.180544", "MEAN_MOTION": 14.38525461, "ECCENTRICITY": 0.00262795, "INCLINATION": 86.3493, "RA_OF_ASC_NODE": 42.5483, "ARG_OF_PERICENTER": 240.6679, "MEAN_ANOMALY": 119.1893, "EPHEMERIS_TYPE": 0, "CLASSIFICATION_TYPE": "U", "NORAD_CAT_ID": 34159, "ELEMENT_SET_NO": 999, "REV_AT_EPOCH": 88151, "BSTAR": 0.00037825721, "MEAN_MOTION_DOT": 1.179e-05, "MEAN_MOTION_DDOT": 0}, "tle": {"line1": "1 34159U 97051EN  25360.08912246  .00001179  00000+0  37826-3 0  9998", "line2": "2 34159  86.3493  42.5483 0026279 240.6679 119.1893 14.38525461881517"}}, "geometry": {"type": "Point", "coordinates": [49.520925112302194, 63.42803958631508]}}, {"type": "Feature", "properties": {"norad_id": 34350, "name": "IRIDIUM 33 DEB", "group": "iridium-33-debris", "lat": 83.14481247962884, "lon": 28.940223275401372, "alt_km": 716.6257384586143, "timestamp": "2025-12-26T22:28:06.170019+00:00", "meta": {"OBJECT_NAME": "IRIDIUM 33 DEB", "OBJECT_ID": "1997-051ES", "EPOCH": "2025-12-26T11:11:35.511072", "MEAN_MOTION": 14.45418943, "ECCENTRICITY": 0.0023531, "INCLINATION": 86.3274, "RA_OF_ASC_NODE": 356.8502, "ARG_OF_PERICENTER": 93.2383, "MEAN_ANOMALY": 67.9711, "EPHEMERIS_TYPE": 0, "CLASSIFICATION_TYPE": "U", "NORAD_CAT_ID": 34350, "ELEMENT_SET_NO": 999, "REV_AT_EPOCH": 88491, "BSTAR": 0.00036255, "MEAN_MOTION_DOT": 1.3e-05, "MEAN_MOTION_DDOT": 0}, "tle": {"line1": "1 34350U 97051ES  25360.46638323  .00001300  00000+0  36255-3 0  9995", "line2": "2 34350  86.3274 356.8502 0023531  93.2383  67.9711 14.45418943884912"}}, "geometry": {"type": "Point", "coordinates": [28.940223275401372, 83.14481247962884]}}, {"type": "Feature", "properties": {"norad_id": 34366, "name": "IRIDIUM 33 DEB", "group": "iridium-33-debris", "lat": 43.02777894895581, "lon": -140.2622155602649, "alt_km": 696.3101835708321, "timestamp": "2025-12-26T22:28:06.170029+00:00", "meta": {"OBJECT_NAME": "IRIDIUM 33 DEB", "OBJECT_ID": "1997-051FJ", "EPOCH": "2025-12-26T03:56:31.227648", "MEAN_MOTION": 14.54157583, "ECCENTRICITY": 0.00230515, "INCLINATION": 86.3679, "RA_OF_ASC_NODE": 43.4727, "ARG_OF_PERICENTER": 98.1181, "MEAN_ANOMALY": 320.0434, "EPHEMERIS_TYPE": 0, "CLASSIFICATION_TYPE": "U", "NORAD_CAT_ID": 34366, "ELEMENT_SET_NO": 999, "REV_AT_EPOCH": 88377, "BSTAR": 0.00085396715, "MEAN_MOTION_DOT": 3.644e-05, "MEAN_MOTION_DDOT": 0}, "tle": {"line1": "1 34366U 97051FJ  25360.16425032  .00003644  00000+0  85397-3 0  9994", "line2": "2 34366  86.3679  43.4727 0023051  98.1181 320.0434 14.54157583883771"}}, "geometry": {"type": "Point", "coordinates": [-140.2622155602649, 43.02777894895581]}}, {"type": "Feature", "properties": {"norad_id": 34375, "name": "IRIDIUM 33 DEB", "group": "iridium-33-debris", "lat": 7.837834141619385, "lon": 177.47124930731007, "alt_km": 813.1397791192903, "timestamp": "2025-12-26T22:28:06.170040+00:00", "meta": {"OBJECT_NAME": "IRIDIUM 33 DEB", "OBJECT_ID": "1997-051FT", "EPOCH": "2025-12-26T12:31:30.469152", "MEAN_MOTION": 14.18016957, "ECCENTRICITY": 0.0103684, "INCLINATION": 86.4324, "RA_OF_ASC_NODE": 177.1462, "ARG_OF_PERICENTER": 83.6449, "MEAN_ANOMALY": 331.8283, "EPHEMERIS_TYPE": 0, "CLASSIFICATION_TYPE": "U", "NORAD_CAT_ID": 34375, "ELEMENT_SET_NO": 999, "REV_AT_EPOCH": 86907, "BSTAR": 0.00041617, "MEAN_MOTION_DOT": 9.18e-06, "MEAN_MOTION_DDOT": 0}, "tle": {"line1": "1 34375U 97051FT  25360.52188043  .00000918  00000+0  41617-3 0  9990", "line2": "2 34375  86.4324 177.1462 0103684  83.6449 331.8283 14.18016957869075"}}, "geometry": {"type": "Point", "coordinates": [177.47124930731007, 7.837834141619385]}}]}